IRIDIUM 112             
1 41925U 17003J   25256.91997953  .00000124  00000+0  37346-4 0  9997
2 41925  86.4012 203.6914 0002123  85.9404 274.2035 14.34218439453674
IRIDIUM 111             
1 41926U 17003K   25256.90729553  .00000263  00000+0  86772-4 0  9997
2 41926  86.4012 203.7607 0002402  84.1662 275.9808 14.34217768453650
IRIDIUM 113             
1 42803U 17039A   25256.88725772  .00000015  00000+0 -16277-5 0  9997
2 42803  86.3911  77.6635 0001956  92.1010 268.0410 14.34217712431589
IRIDIUM 123             
1 42804U 17039B   25256.85896991  .00000017  00000+0 -94880-6 0  9996
2 42804  86.3933 109.1778 0002357  90.8434 269.3032 14.34217807430346
IRIDIUM 120             
1 42805U 17039C   25256.95068289  .00000082  00000+0  22103-4 0  9997
2 42805  86.3902  77.4550 0002394  85.1563 274.9906 14.34217618431588
IRIDIUM 115             
1 42806U 17039D   25256.90451324  .00000052  00000+0  94390-5 0  9994
2 42806  86.4438  77.5653 0002836  94.2521 265.9005 14.43278626434416
IRIDIUM 118             
1 42807U 17039E   25256.68137615  .00000056  00000+0  13098-4 0  9993
2 42807  86.3931 109.2513 0001932  90.7869 269.3548 14.34217847430317
IRIDIUM 117             
1 42808U 17039F   25256.83994894  .00000208  00000+0  67206-4 0  9990
2 42808  86.3931 109.1452 0002274  91.2417 268.9039 14.34219480430364
